NORAD_CAT_ID,OBJECT_NAME,OBJECT_TYPE,EPOCH,MEAN_MOTION,ECCENTRICITY,INCLINATION,RA_OF_ASC_NODE,ARG_OF_PERICENTER,MEAN_ANOMALY,BSTAR,MEAN_MOTION_DOT,MEAN_MOTION_DDOT,TLE_LINE0,TLE_LINE1,TLE_LINE2,SEMIMAJOR_AXIS,PERIOD,APOGEE,PERIGEE,DECAYED
56464.0,STARLINK-6043,PAYLOAD,2023-05-29 12:18:26,15.69925743,0.0003526,69.9987,192.4869,261.257,98.8227,3.0252e-05,3.427e-05,0.0,0 STARLINK-6043,1 56464U 23064S   23149.51280553  .00003427  00000-0  30252-4 0  9990,2 56464  69.9987 192.4869 0003526 261.2570  98.8227 15.69925743  2978,6737.246,91.724,361.487,356.736,0.0
56464.0,STARLINK-6043,PAYLOAD,2023-05-29 14:00:01,15.69907493,0.0003527,69.9992,192.2881,266.2893,132.3359,0.00030841,0.0003701,0.0,0 STARLINK-6043,1 56464U 23064S   23149.58334491  .00037010  00000-0  30841-3 0  9996,2 56464  69.9992 192.2881 0003527 266.2893 132.3359 15.69907493  3333,6737.299,91.725,361.54,356.787,0.0
56464.0,STARLINK-6043,PAYLOAD,2023-05-29 19:57:12,15.69928991,0.0003528,69.9986,191.5909,260.7761,99.3036,6.8122e-05,7.988e-05,0.0,0 STARLINK-6043,1 56464U 23064S   23149.83138931  .00007988  00000-0  68122-4 0  9990,2 56464  69.9986 191.5909 0003528 260.7761  99.3036 15.69928991  3029,6737.237,91.724,361.479,356.725,0.0
56464.0,STARLINK-6043,PAYLOAD,2023-05-30 02:04:12,15.69924503,0.0003521,69.9988,190.8741,260.9074,99.1724,5.525e-05,6.436e-05,0.0,0 STARLINK-6043,1 56464U 23064S   23150.08625734  .00006436  00000-0  55250-4 0  9996,2 56464  69.9988 190.8741 0003521 260.9074  99.1724 15.69924503  3419,6737.25,91.724,361.487,356.743,0.0
56464.0,STARLINK-6043,PAYLOAD,2023-05-30 11:14:43,15.69945605,0.0003517,69.9988,189.7994,261.7877,98.292,0.00015878,0.0001894,0.0,0 STARLINK-6043,1 56464U 23064S   23150.46855478  .00018940  00000-0  15878-3 0  9992,2 56464  69.9988 189.7994 0003517 261.7877  98.2920 15.69945605  3471,6737.19,91.723,361.424,356.685,0.0
56464.0,STARLINK-6043,PAYLOAD,2023-05-30 12:46:28,15.69948089,0.000352,69.9988,189.6199,263.1625,96.917,0.00021294,0.00025495,0.0,0 STARLINK-6043,1 56464U 23064S   23150.53227118  .00025495  00000-0  21294-3 0  9996,2 56464  69.9988 189.6199 0003520 263.1625  96.9170 15.69948089  3132,6737.183,91.723,361.419,356.676,0.0
56464.0,STARLINK-6043,PAYLOAD,2023-05-30 18:53:28,15.6993916,0.0003485,69.9988,188.9034,265.8909,94.1888,0.00014057,0.00016734,0.0,0 STARLINK-6043,1 56464U 23064S   23150.78713891  .00016734  00000-0  14057-3 0  9996,2 56464  69.9988 188.9034 0003485 265.8909  94.1888 15.69939160  3525,6737.208,91.723,361.421,356.725,0.0
56464.0,STARLINK-6043,PAYLOAD,2023-05-30 20:25:13,15.69939145,0.0003493,69.9988,188.7243,265.8354,94.2443,0.00012439,0.0001478,0.0,0 STARLINK-6043,1 56464U 23064S   23150.85085488  .00014780  00000-0  12439-3 0  9999,2 56464  69.9988 188.7243 0003493 265.8354  94.2443 15.69939145  3181,6737.208,91.723,361.426,356.72,0.0
56464.0,STARLINK-6043,PAYLOAD,2023-05-31 02:32:14,15.69922609,0.0003459,69.9986,188.008,262.4416,97.6387,6.1326e-06,5.25e-06,0.0,0 STARLINK-6043,1 56464U 23064S   23151.10572445  .00000525  00000-0  61326-5 0  9995,2 56464  69.9986 188.0080 0003459 262.4416  97.6387 15.69922609  3579,6737.255,91.724,361.451,356.79,0.0
56464.0,STARLINK-6043,PAYLOAD,2023-05-31 11:42:45,15.69930334,0.0003493,69.9983,186.933,263.1568,96.923,3.4672e-05,3.959e-05,0.0,0 STARLINK-6043,1 56464U 23064S   23151.48802256  .00003959  00000-0  34672-4 0  9999,2 56464  69.9983 186.9330 0003493 263.1568  96.9230 15.69930334  3286,6737.233,91.724,361.452,356.745,0.0
56464.0,STARLINK-6043,PAYLOAD,2023-05-31 14:46:15,15.69933341,0.0003495,69.9982,186.5747,263.0761,97.0037,4.0997e-05,4.721e-05,0.0,0 STARLINK-6043,1 56464U 23064S   23151.61545522  .00004721  00000-0  40997-4 0  9999,2 56464  69.9982 186.5747 0003495 263.0761  97.0037 15.69933341  3658,6737.225,91.724,361.444,356.735,0.0
56464.0,STARLINK-6043,PAYLOAD,2023-05-31 20:53:15,15.69927781,0.0003524,69.9983,185.8579,264.9162,95.1631,2.1364e-05,2.357e-05,0.0,0 STARLINK-6043,1 56464U 23064S   23151.87032361  .00002357  00000-0  21364-4 0  9999,2 56464  69.9983 185.8579 0003524 264.9162  95.1631 15.69927781  3348,6737.241,91.724,361.48,356.731,0.0
56464.0,STARLINK-6043,PAYLOAD,2023-05-31 23:56:46,15.69926017,0.000354,69.9983,185.4995,265.3856,94.6935,1.7444e-05,1.885e-05,0.0,0 STARLINK-6043,1 56464U 23064S   23151.99775674  .00001885  00000-0  17444-4 0  9992,2 56464  69.9983 185.4995 0003540 265.3856  94.6935 15.69926017  3712,6737.246,91.724,361.496,356.726,0.0
56464.0,STARLINK-6043,PAYLOAD,2023-06-01 10:39:01,15.69933567,0.0003603,69.9979,184.2459,263.9658,96.1127,3.3503e-05,3.819e-05,0.0,0 STARLINK-6043,1 56464U 23064S   23152.44377113  .00003819  00000-0  33503-4 0  9992,2 56464  69.9979 184.2459 0003603 263.9658  96.1127 15.69933567  3430,6737.224,91.724,361.516,356.662,0.0
56464.0,STARLINK-6043,PAYLOAD,2023-06-01 19:49:32,15.69926951,0.0003508,69.9982,183.1711,263.6954,96.3842,2.7759e-05,3.127e-05,0.0,0 STARLINK-6043,1 56464U 23064S   23152.82607365  .00003127  00000-0  27759-4 0  9997,2 56464  69.9982 183.1711 0003508 263.6954  96.3842 15.69926951  3494,6737.243,91.724,361.471,356.745,0.0
56464.0,STARLINK-6043,PAYLOAD,2023-06-02 09:35:19,15.69921028,0.0003367,69.9977,181.559,265.3692,94.7119,9.55e-06,9.35e-06,0.0,0 STARLINK-6043,1 56464U 23064S   23153.39952726  .00000935  00000-0  95500-5 0  9998,2 56464  69.9977 181.5590 0003367 265.3692  94.7119 15.69921028  3934,6737.26,91.724,361.393,356.857,0.0
56464.0,STARLINK-6043,PAYLOAD,2023-06-02 11:07:04,15.69921053,0.0003407,69.9973,181.38,265.2204,94.8603,1.5476e-05,1.648e-05,0.0,0 STARLINK-6043,1 56464U 23064S   23153.46324512  .00001648  00000-0  15476-4 0  9997,2 56464  69.9973 181.3800 0003407 265.2204  94.8603 15.69921053  3594,6737.26,91.724,361.42,356.829,0.0
56464.0,STARLINK-6043,PAYLOAD,2023-06-02 18:45:49,15.69922114,0.000338,69.9971,180.4843,266.0879,93.993,-2.7088e-07,-2.45e-06,0.0,0 STARLINK-6043,1 56464U 23064S   23153.78182816 -.00000245  00000-0 -27088-6 0  9999,2 56464  69.9971 180.4843 0003380 266.0879  93.9930 15.69922114  3644,6737.257,91.724,361.399,356.845,0.0
56464.0,STARLINK-6043,PAYLOAD,2023-06-03 10:03:20,15.69930592,0.0003489,69.9961,178.6926,268.9495,91.1301,2.947e-05,3.333e-05,0.0,0 STARLINK-6043,1 56464U 23064S   23154.41898882  .00003333  00000-0  29470-4 0  9991,2 56464  69.9961 178.6926 0003489 268.9495  91.1301 15.69930592  4090,6737.233,91.724,361.448,356.747,0.0
56464.0,STARLINK-6043,PAYLOAD,2023-06-03 11:35:05,15.6993048,0.0003409,69.9972,178.5143,269.1338,90.9467,2.1676e-05,2.395e-05,0.0,0 STARLINK-6043,1 56464U 23064S   23154.48270672  .00002395  00000-0  21676-4 0  9996,2 56464  69.9972 178.5143 0003409 269.1338  90.9467 15.69930480  3751,6737.233,91.724,361.395,356.801,0.0
56464.0,STARLINK-6043,PAYLOAD,2023-06-03 19:13:52,15.69922501,0.0003201,69.9951,177.6194,277.4406,82.6425,4.0555e-06,2.75e-06,0.0,0 STARLINK-6043,1 56464U 23064S   23154.80129857  .00000275  00000-0  40555-5 0  9993,2 56464  69.9951 177.6194 0003201 277.4406  82.6425 15.69922501  3805,6737.256,91.724,361.277,356.964,0.0
56464.0,STARLINK-6043,PAYLOAD,2023-06-04 02:52:37,15.69925904,0.0003537,69.9967,176.7216,264.1979,95.8813,1.9066e-05,2.08e-05,0.0,0 STARLINK-6043,1 56464U 23064S   23155.11987668  .00002080  00000-0  19066-4 0  9998,2 56464  69.9967 176.7216 0003537 264.1979  95.8813 15.69925904  4209,6737.246,91.724,361.494,356.728,0.0
56464.0,STARLINK-6043,PAYLOAD,2023-06-04 10:31:22,15.69930068,0.0003409,69.9983,175.8257,268.0827,91.9979,2.6106e-05,2.928e-05,0.0,0 STARLINK-6043,1 56464U 23064S   23155.43845946  .00002928  00000-0  26106-4 0  9999,2 56464  69.9983 175.8257 0003409 268.0827  91.9979 15.69930068  3908,6737.234,91.724,361.396,356.802,0.0
56464.0,STARLINK-6043,PAYLOAD,2023-06-04 15:06:38,15.6992714,0.0003334,69.9983,175.2885,268.2663,91.815,2.2045e-05,2.439e-05,0.0,0 STARLINK-6043,1 56464U 23064S   23155.62961172  .00002439  00000-0  22045-4 0  9995,2 56464  69.9983 175.2885 0003334 268.2663  91.8150 15.69927140  3936,6737.242,91.724,361.354,356.861,0.0
56464.0,STARLINK-6043,PAYLOAD,2023-06-05 04:52:24,15.69923284,0.000338,69.9984,173.6769,268.312,91.7688,3.4328e-06,2e-06,0.0,0 STARLINK-6043,1 56464U 23064S   23156.20306368  .00000200  00000-0  34328-5 0  9992,2 56464  69.9984 173.6769 0003380 268.3120  91.7688 15.69923284  4379,6737.253,91.724,361.396,356.841,0.0
56464.0,STARLINK-6043,PAYLOAD,2023-06-05 12:31:10,15.69926666,0.0003406,69.9984,172.7806,267.8654,92.2152,8.7452e-06,8.39e-06,0.0,0 STARLINK-6043,1 56464U 23064S   23156.52164517  .00000839  00000-0  87452-5 0  9999,2 56464  69.9984 172.7806 0003406 267.8654  92.2152 15.69926666  4072,6737.244,91.724,361.404,356.814,0.0
56464.0,STARLINK-6043,PAYLOAD,2023-06-05 18:38:10,15.69921443,0.000331,69.9978,172.0651,271.7369,88.3448,1.2014e-05,1.232e-05,0.0,0 STARLINK-6043,1 56464U 23064S   23156.77651528  .00001232  00000-0  12014-4 0  9998,2 56464  69.9978 172.0651 0003310 271.7369  88.3448 15.69921443  4114,6737.259,91.724,361.354,356.894,0.0
56464.0,STARLINK-6043,PAYLOAD,2023-06-06 08:23:56,15.69927964,0.0003454,69.9989,170.4529,268.039,92.041,1.1393e-05,1.158e-05,0.0,0 STARLINK-6043,1 56464U 23064S   23157.34996209  .00001158  00000-0  11393-4 0  9996,2 56464  69.9989 170.4529 0003454 268.0390  92.0410 15.69927964  4557,6737.24,91.724,361.432,356.778,0.0
56464.0,STARLINK-6043,PAYLOAD,2023-06-06 09:55:41,15.69925426,0.0003506,69.9988,170.2739,268.6469,91.4325,6.8639e-06,6.13e-06,0.0,0 STARLINK-6043,1 56464U 23064S   23157.41368030  .00000613  00000-0  68639-5 0  9990,2 56464  69.9988 170.2739 0003506 268.6469  91.4325 15.69925426  4210,6737.247,91.724,361.474,356.75,0.0
56464.0,STARLINK-6043,PAYLOAD,2023-06-06 12:59:12,15.69926174,0.0003532,69.9984,169.916,271.1548,88.9243,9.2211e-06,8.96e-06,0.0,0 STARLINK-6043,1 56464U 23064S   23157.54111364  .00000896  00000-0  92211-5 0  9996,2 56464  69.9984 169.9160 0003532 271.1548  88.9243 15.69926174  4238,6737.245,91.724,361.49,356.731,0.0
